CCSDS_OMM_VERS = 2.0
CREATION_DATE  = 
ORIGINATOR     = 

OBJECT_NAME    = 2025-313G
OBJECT_ID      = 2025-313G
CENTER_NAME    = EARTH
REF_FRAME      = TEME
TIME_SYSTEM    = UTC
MEAN_ELEMENT_THEORY = SGP/SGP4

EPOCH          = 2026-01-12T06:19:39.807552
MEAN_MOTION    = 15.64762708
ECCENTRICITY   = .00105768
INCLINATION    = 97.1036
RA_OF_ASC_NODE = 89.5699
ARG_OF_PERICENTER = 186.4349
MEAN_ANOMALY   = 173.6777

EPHEMERIS_TYPE = 0
CLASSIFICATION_TYPE = U
NORAD_CAT_ID   = 67254
ELEMENT_SET_NO = 999
REV_AT_EPOCH   = 227
BSTAR          = .47639078E-3
MEAN_MOTION_DOT = .46465E-3
MEAN_MOTION_DDOT = 0

CCSDS_OMM_VERS = 2.0
CREATION_DATE  = 
ORIGINATOR     = 

OBJECT_NAME    = 2025-313H
OBJECT_ID      = 2025-313H
CENTER_NAME    = EARTH
REF_FRAME      = TEME
TIME_SYSTEM    = UTC
MEAN_ELEMENT_THEORY = SGP/SGP4

EPOCH          = 2026-01-12T06:21:41.913216
MEAN_MOTION    = 15.02160856
ECCENTRICITY   = .00909763
INCLINATION    = 97.3106
RA_OF_ASC_NODE = 88.9055
ARG_OF_PERICENTER = 145.2593
MEAN_ANOMALY   = 215.4620

EPHEMERIS_TYPE = 0
CLASSIFICATION_TYPE = U
NORAD_CAT_ID   = 67255
ELEMENT_SET_NO = 999
REV_AT_EPOCH   = 221
BSTAR          = .19393363E-3
MEAN_MOTION_DOT = .2729E-4
MEAN_MOTION_DDOT = 0

CCSDS_OMM_VERS = 2.0
CREATION_DATE  = 
ORIGINATOR     = 

OBJECT_NAME    = SITRO-AIS-57
OBJECT_ID      = 2025-313J
CENTER_NAME    = EARTH
REF_FRAME      = TEME
TIME_SYSTEM    = UTC
MEAN_ELEMENT_THEORY = SGP/SGP4

EPOCH          = 2026-01-12T05:29:30.343488
MEAN_MOTION    = 15.19837676
ECCENTRICITY   = .00166874
INCLINATION    = 97.4107
RA_OF_ASC_NODE = 89.4257
ARG_OF_PERICENTER = 185.3333
MEAN_ANOMALY   = 174.7727

EPHEMERIS_TYPE = 0
CLASSIFICATION_TYPE = U
NORAD_CAT_ID   = 67256
ELEMENT_SET_NO = 999
REV_AT_EPOCH   = 223
BSTAR          = .53263415E-3
MEAN_MOTION_DOT = .114E-3
MEAN_MOTION_DDOT = 0

CCSDS_OMM_VERS = 2.0
CREATION_DATE  = 
ORIGINATOR     = 

OBJECT_NAME    = SITRO-AIS-59
OBJECT_ID      = 2025-313K
CENTER_NAME    = EARTH
REF_FRAME      = TEME
TIME_SYSTEM    = UTC
MEAN_ELEMENT_THEORY = SGP/SGP4

EPOCH          = 2026-01-12T03:54:10.532160
MEAN_MOTION    = 15.19862524
ECCENTRICITY   = .00164242
INCLINATION    = 97.4113
RA_OF_ASC_NODE = 89.3626
ARG_OF_PERICENTER = 187.6091
MEAN_ANOMALY   = 172.4897

EPHEMERIS_TYPE = 0
CLASSIFICATION_TYPE = U
NORAD_CAT_ID   = 67257
ELEMENT_SET_NO = 999
REV_AT_EPOCH   = 222
BSTAR          = .56271146E-3
MEAN_MOTION_DOT = .12056E-3
MEAN_MOTION_DDOT = 0

CCSDS_OMM_VERS = 2.0
CREATION_DATE  = 
ORIGINATOR     = 

OBJECT_NAME    = SITRO-AIS-58
OBJECT_ID      = 2025-313L
CENTER_NAME    = EARTH
REF_FRAME      = TEME
TIME_SYSTEM    = UTC
MEAN_ELEMENT_THEORY = SGP/SGP4

EPOCH          = 2026-01-12T03:53:47.183424
MEAN_MOTION    = 15.19905462
ECCENTRICITY   = .00163696
INCLINATION    = 97.4109
RA_OF_ASC_NODE = 89.3614
ARG_OF_PERICENTER = 186.8935
MEAN_ANOMALY   = 173.2077

EPHEMERIS_TYPE = 0
CLASSIFICATION_TYPE = U
NORAD_CAT_ID   = 67258
ELEMENT_SET_NO = 999
REV_AT_EPOCH   = 222
BSTAR          = .57649679E-3
MEAN_MOTION_DOT = .12369E-3
MEAN_MOTION_DDOT = 0

CCSDS_OMM_VERS = 2.0
CREATION_DATE  = 
ORIGINATOR     = 

OBJECT_NAME    = 2025-313M
OBJECT_ID      = 2025-313M
CENTER_NAME    = EARTH
REF_FRAME      = TEME
TIME_SYSTEM    = UTC
MEAN_ELEMENT_THEORY = SGP/SGP4

EPOCH          = 2026-01-12T03:50:42.216576
MEAN_MOTION    = 15.20182934
ECCENTRICITY   = .00155906
INCLINATION    = 97.4152
RA_OF_ASC_NODE = 89.3839
ARG_OF_PERICENTER = 185.4488
MEAN_ANOMALY   = 174.6580

EPHEMERIS_TYPE = 0
CLASSIFICATION_TYPE = U
NORAD_CAT_ID   = 67259
ELEMENT_SET_NO = 999
REV_AT_EPOCH   = 222
BSTAR          = .71567766E-3
MEAN_MOTION_DOT = .15497E-3
MEAN_MOTION_DDOT = 0

CCSDS_OMM_VERS = 2.0
CREATION_DATE  = 
ORIGINATOR     = 

OBJECT_NAME    = SITRO-AIS-60
OBJECT_ID      = 2025-313N
CENTER_NAME    = EARTH
REF_FRAME      = TEME
TIME_SYSTEM    = UTC
MEAN_ELEMENT_THEORY = SGP/SGP4

EPOCH          = 2026-01-12T03:51:56.117952
MEAN_MOTION    = 15.20001030
ECCENTRICITY   = .00157442
INCLINATION    = 97.4117
RA_OF_ASC_NODE = 89.3652
ARG_OF_PERICENTER = 187.0161
MEAN_ANOMALY   = 173.0857

EPHEMERIS_TYPE = 0
CLASSIFICATION_TYPE = U
NORAD_CAT_ID   = 67260
ELEMENT_SET_NO = 999
REV_AT_EPOCH   = 222
BSTAR          = .46038513E-3
MEAN_MOTION_DOT = .9885E-4
MEAN_MOTION_DDOT = 0

CCSDS_OMM_VERS = 2.0
CREATION_DATE  = 
ORIGINATOR     = 

OBJECT_NAME    = 2025-313P
OBJECT_ID      = 2025-313P
CENTER_NAME    = EARTH
REF_FRAME      = TEME
TIME_SYSTEM    = UTC
MEAN_ELEMENT_THEORY = SGP/SGP4

EPOCH          = 2026-01-12T06:58:54.048576
MEAN_MOTION    = 15.20362786
ECCENTRICITY   = .00154079
INCLINATION    = 97.4152
RA_OF_ASC_NODE = 89.5151
ARG_OF_PERICENTER = 185.3025
MEAN_ANOMALY   = 174.8050

EPHEMERIS_TYPE = 0
CLASSIFICATION_TYPE = U
NORAD_CAT_ID   = 67261
ELEMENT_SET_NO = 999
REV_AT_EPOCH   = 224
BSTAR          = .83670151E-3
MEAN_MOTION_DOT = .1823E-3
MEAN_MOTION_DDOT = 0

CCSDS_OMM_VERS = 2.0
CREATION_DATE  = 
ORIGINATOR     = 

OBJECT_NAME    = 2025-313Q
OBJECT_ID      = 2025-313Q
CENTER_NAME    = EARTH
REF_FRAME      = TEME
TIME_SYSTEM    = UTC
MEAN_ELEMENT_THEORY = SGP/SGP4

EPOCH          = 2026-01-12T07:00:04.201920
MEAN_MOTION    = 15.20173708
ECCENTRICITY   = .00154529
INCLINATION    = 97.4120
RA_OF_ASC_NODE = 89.4962
ARG_OF_PERICENTER = 187.2344
MEAN_ANOMALY   = 172.8670

EPHEMERIS_TYPE = 0
CLASSIFICATION_TYPE = U
NORAD_CAT_ID   = 67262
ELEMENT_SET_NO = 999
REV_AT_EPOCH   = 224
BSTAR          = .61279606E-3
MEAN_MOTION_DOT = .13251E-3
MEAN_MOTION_DDOT = 0

CCSDS_OMM_VERS = 2.0
CREATION_DATE  = 
ORIGINATOR     = 

OBJECT_NAME    = 2025-313R
OBJECT_ID      = 2025-313R
CENTER_NAME    = EARTH
REF_FRAME      = TEME
TIME_SYSTEM    = UTC
MEAN_ELEMENT_THEORY = SGP/SGP4

EPOCH          = 2026-01-12T03:50:44.754144
MEAN_MOTION    = 15.20124702
ECCENTRICITY   = .00153831
INCLINATION    = 97.4132
RA_OF_ASC_NODE = 89.3805
ARG_OF_PERICENTER = 186.6059
MEAN_ANOMALY   = 173.4976

EPHEMERIS_TYPE = 0
CLASSIFICATION_TYPE = U
NORAD_CAT_ID   = 67263
ELEMENT_SET_NO = 999
REV_AT_EPOCH   = 222
BSTAR          = .56554841E-3
MEAN_MOTION_DOT = .12205E-3
MEAN_MOTION_DDOT = 0

CCSDS_OMM_VERS = 2.0
CREATION_DATE  = 
ORIGINATOR     = 

OBJECT_NAME    = 2025-313S
OBJECT_ID      = 2025-313S
CENTER_NAME    = EARTH
REF_FRAME      = TEME
TIME_SYSTEM    = UTC
MEAN_ELEMENT_THEORY = SGP/SGP4

EPOCH          = 2026-01-12T07:01:05.964960
MEAN_MOTION    = 15.20016868
ECCENTRICITY   = .00153493
INCLINATION    = 97.4202
RA_OF_ASC_NODE = 89.5052
ARG_OF_PERICENTER = 191.2128
MEAN_ANOMALY   = 168.8767

EPHEMERIS_TYPE = 0
CLASSIFICATION_TYPE = U
NORAD_CAT_ID   = 67264
ELEMENT_SET_NO = 999
REV_AT_EPOCH   = 224
BSTAR          = .37606906E-3
MEAN_MOTION_DOT = .8063E-4
MEAN_MOTION_DDOT = 0

CCSDS_OMM_VERS = 2.0
CREATION_DATE  = 
ORIGINATOR     = 

OBJECT_NAME    = SITRO-TD-4
OBJECT_ID      = 2025-313T
CENTER_NAME    = EARTH
REF_FRAME      = TEME
TIME_SYSTEM    = UTC
MEAN_ELEMENT_THEORY = SGP/SGP4

EPOCH          = 2026-01-12T03:50:18.776256
MEAN_MOTION    = 15.20152366
ECCENTRICITY   = .00153061
INCLINATION    = 97.4111
RA_OF_ASC_NODE = 89.3766
ARG_OF_PERICENTER = 187.4827
MEAN_ANOMALY   = 172.6182

EPHEMERIS_TYPE = 0
CLASSIFICATION_TYPE = U
NORAD_CAT_ID   = 67265
ELEMENT_SET_NO = 999
REV_AT_EPOCH   = 222
BSTAR          = .54621928E-3
MEAN_MOTION_DOT = .11794E-3
MEAN_MOTION_DDOT = 0

