2025-313G               
1 67254U 25313G   26012.26365518  .00046465  00000+0  47639-3 0  9991
2 67254  97.1036  89.5699 0010576 186.4349 173.6777 15.64762708  2277
2025-313H               
1 67255U 25313H   26012.26506844  .00002729  00000+0  19393-3 0  9992
2 67255  97.3106  88.9055 0090976 145.2593 215.4620 15.02160856  2217
SITRO-AIS-57            
1 67256U 25313J   26012.22882342  .00011400  00000+0  53263-3 0  9999
2 67256  97.4107  89.4257 0016687 185.3333 174.7727 15.19837676  2230
SITRO-AIS-59            
1 67257U 25313K   26012.16262190  .00012056  00000+0  56271-3 0  9996
2 67257  97.4113  89.3626 0016424 187.6091 172.4897 15.19862524  2224
SITRO-AIS-58            
1 67258U 25313L   26012.16235166  .00012369  00000+0  57650-3 0  9999
2 67258  97.4109  89.3614 0016369 186.8935 173.2077 15.19905462  2221
2025-313M               
1 67259U 25313M   26012.16021084  .00015497  00000+0  71568-3 0  9991
2 67259  97.4152  89.3839 0015590 185.4488 174.6580 15.20182934  2229
SITRO-AIS-60            
1 67260U 25313N   26012.16106618  .00009885  00000+0  46039-3 0  9999
2 67260  97.4117  89.3652 0015744 187.0161 173.0857 15.20001030  2229
2025-313P               
1 67261U 25313P   26012.29090334  .00018230  00000+0  83670-3 0  9997
2 67261  97.4152  89.5151 0015407 185.3025 174.8050 15.20362786  2245
2025-313Q               
1 67262U 25313Q   26012.29171530  .00013251  00000+0  61280-3 0  9997
2 67262  97.4120  89.4962 0015452 187.2344 172.8670 15.20173708  2245
2025-313R               
1 67263U 25313R   26012.16024021  .00012205  00000+0  56555-3 0  9993
2 67263  97.4132  89.3805 0015383 186.6059 173.4976 15.20124702  2227
2025-313S               
1 67264U 25313S   26012.29243015  .00008063  00000+0  37607-3 0  9998
2 67264  97.4202  89.5052 0015349 191.2128 168.8767 15.20016868  2244
SITRO-TD-4              
1 67265U 25313T   26012.15993954  .00011794  00000+0  54622-3 0  9999
2 67265  97.4111  89.3766 0015306 187.4827 172.6182 15.20152366  2226
